NORAD_CAT_ID,OBJECT_NAME,OBJECT_TYPE,EPOCH,MEAN_MOTION,ECCENTRICITY,INCLINATION,RA_OF_ASC_NODE,ARG_OF_PERICENTER,MEAN_ANOMALY,BSTAR,MEAN_MOTION_DOT,MEAN_MOTION_DDOT,TLE_LINE0,TLE_LINE1,TLE_LINE2,SEMIMAJOR_AXIS,PERIOD,APOGEE,PERIGEE,DECAYED
49758.0,STARLINK-3194,PAYLOAD,2024-05-08 16:13:36,15.08842303,0.000114,53.2167,266.9269,77.9757,282.1363,7.6354e-05,9.28e-06,0.0,0 STARLINK-3194,1 49758U 21115AL  24129.67612194  .00000928  00000-0  76354-4 0  9995,2 49758  53.2167 266.9269 0001140  77.9757 282.1363 15.08842303135634,6917.873,95.437,540.527,538.95,0.0
49758.0,STARLINK-3194,PAYLOAD,2024-05-09 14:29:00,15.0884563,0.0001199,53.2173,262.7679,99.4601,260.6527,0.0002967,4.438e-05,0.0,0 STARLINK-3194,1 49758U 21115AL  24130.60348320  .00004438  00000-0  29670-3 0  9995,2 49758  53.2173 262.7679 0001199  99.4601 260.6527 15.08845630134662,6917.863,95.437,540.558,538.899,0.0
49758.0,STARLINK-3194,PAYLOAD,2024-05-09 16:04:23,15.08853309,9.89e-05,53.2163,262.4683,83.5079,276.6026,0.00037052,5.616e-05,0.0,0 STARLINK-3194,1 49758U 21115AL  24130.66971901  .00005616  00000-0  37052-3 0  9990,2 49758  53.2163 262.4683 0000989  83.5079 276.6026 15.08853309134676,6917.84,95.437,540.389,539.021,0.0
49758.0,STARLINK-3194,PAYLOAD,2024-05-10 01:36:42,15.08852225,8.96e-05,53.2158,260.6833,62.0567,298.0516,0.00029118,4.351e-05,0.0,0 STARLINK-3194,1 49758U 21115AL  24131.06715866  .00004351  00000-0  29118-3 0  9990,2 49758  53.2158 260.6833 0000896  62.0567 298.0516 15.08852225135846,6917.843,95.437,540.328,539.088,0.0
49758.0,STARLINK-3194,PAYLOAD,2024-05-10 12:44:25,15.08834796,0.0002003,53.2178,258.6035,80.7122,279.4097,6.0592e-05,6.76e-06,0.0,0 STARLINK-3194,1 49758U 21115AL  24131.53085228  .00000676  00000-0  60592-4 0  9992,2 49758  53.2178 258.6035 0002003  80.7122 279.4097 15.08834796135913,6917.896,95.438,541.147,538.376,0.0
49758.0,STARLINK-3194,PAYLOAD,2024-05-10 17:30:34,15.08844804,0.0001115,53.2175,257.7136,89.3243,270.7877,0.00018679,2.687e-05,0.0,0 STARLINK-3194,1 49758U 21115AL  24131.72956680  .00002687  00000-0  18679-3 0  9994,2 49758  53.2175 257.7136 0001115  89.3243 270.7877 15.08844804135948,6917.866,95.437,540.502,538.959,0.0
49758.0,STARLINK-3194,PAYLOAD,2024-05-11 14:10:32,15.0890514,0.0001714,53.2177,253.8497,82.1982,277.9205,0.0013671,0.00021575,0.0,0 STARLINK-3194,1 49758U 21115AL  24132.59065359  .00021575  00000-0  13671-2 0  9997,2 49758  53.2177 253.8497 0001714  82.1982 277.9205 15.08905140136073,6917.681,95.433,540.732,538.361,0.0
49758.0,STARLINK-3194,PAYLOAD,2024-05-11 17:21:21,15.0878903,0.0001165,53.2158,253.2521,85.6408,274.4717,-0.0019688,-0.00031441,0.0,0 STARLINK-3194,1 49758U 21115AL  24132.72316156 -.00031441  00000-0 -19688-2 0  9995,2 49758  53.2158 253.2521 0001165  85.6408 274.4717 15.08789030136095,6918.036,95.441,540.707,539.095,0.0
49758.0,STARLINK-3194,PAYLOAD,2024-05-12 14:01:29,15.08672532,0.0001481,53.2168,249.3869,96.7749,263.3412,-0.0025083,-0.00039805,0.0,0 STARLINK-3194,1 49758U 21115AL  24133.58437358 -.00039805  00000-0 -25083-2 0  9996,2 49758  53.2168 249.3869 0001481  96.7749 263.3412 15.08672532136221,6918.392,95.448,541.282,539.233,0.0
49758.0,STARLINK-3194,PAYLOAD,2024-05-13 04:19:59,15.08797083,0.0001356,53.2172,246.7096,91.4065,268.7082,0.0034146,0.00054411,0.0,0 STARLINK-3194,1 49758U 21115AL  24134.18054517  .00054411  00000-0  34146-2 0  9993,2 49758  53.2172 246.7096 0001356  91.4065 268.7082 15.08797083136314,6918.012,95.44,540.815,538.938,0.0
49758.0,STARLINK-3194,PAYLOAD,2024-05-13 12:16:54,15.0884793,0.0001388,53.2151,245.228,51.1885,308.9231,0.0023649,0.00037558,0.0,0 STARLINK-3194,1 49758U 21115AL  24134.51173674  .00037558  00000-0  23649-2 0  9995,2 49758  53.2151 245.2280 0001388  51.1885 308.9231 15.08847930136363,6917.856,95.437,540.681,538.761,0.0
49758.0,STARLINK-3194,PAYLOAD,2024-05-13 13:52:16,15.08860845,0.0001159,53.2138,244.9265,74.1886,285.9234,0.0023792,0.00037802,0.0,0 STARLINK-3194,1 49758U 21115AL  24134.57797288  .00037802  00000-0  23792-2 0  9995,2 49758  53.2138 244.9265 0001159  74.1886 285.9234 15.08860845135264,6917.817,95.436,540.483,538.88,0.0
49758.0,STARLINK-3194,PAYLOAD,2024-05-13 17:03:02,15.08876192,0.0001111,53.2141,244.3316,69.9978,290.1134,0.0017271,0.00027333,0.0,0 STARLINK-3194,1 49758U 21115AL  24134.71044644  .00027333  00000-0  17271-2 0  9995,2 49758  53.2141 244.3316 0001111  69.9978 290.1134 15.08876192136395,6917.77,95.435,540.403,538.866,0.0
49758.0,STARLINK-3194,PAYLOAD,2024-05-14 12:07:36,15.08929591,0.0001235,53.216,240.763,77.0467,283.0663,0.0015402,0.0002437,0.0,0 STARLINK-3194,1 49758U 21115AL  24135.50528636  .00024370  00000-0  15402-2 0  9993,2 49758  53.2160 240.7630 0001235  77.0467 283.0663 15.08929591136519,6917.607,95.432,540.326,538.617,0.0
49758.0,STARLINK-3194,PAYLOAD,2024-05-14 13:42:59,15.08933132,0.0001349,53.2172,240.4654,82.7018,277.4127,0.0015732,0.00024902,0.0,0 STARLINK-3194,1 49758U 21115AL  24135.57152197  .00024902  00000-0  15732-2 0  9992,2 49758  53.2172 240.4654 0001349  82.7018 277.4127 15.08933132135412,6917.596,95.432,540.394,538.528,0.0
49758.0,STARLINK-3194,PAYLOAD,2024-05-15 11:58:21,15.08871201,0.0001485,53.2173,236.3023,111.6079,248.5072,0.0011083,0.0001741,0.0,0 STARLINK-3194,1 49758U 21115AL  24136.49885895  .00017410  00000-0  11083-2 0  9993,2 49758  53.2173 236.3023 0001485 111.6079 248.5072 15.08871201136661,6917.785,95.436,540.677,538.623,0.0
49758.0,STARLINK-3194,PAYLOAD,2024-05-15 23:06:02,15.0887692,0.0001225,53.2166,234.2208,86.8498,273.2634,0.0014518,0.00022916,0.0,0 STARLINK-3194,1 49758U 21115AL  24136.96253248  .00022916  00000-0  14518-2 0  9999,2 49758  53.2166 234.2208 0001225  86.8498 273.2634 15.08876920136735,6917.768,95.435,540.48,538.785,0.0
49758.0,STARLINK-3194,PAYLOAD,2024-05-16 13:24:30,15.08886387,0.0001604,53.2185,231.5481,102.7946,257.3225,0.0021082,0.00033466,0.0,0 STARLINK-3194,1 49758U 21115AL  24137.55868403  .00033466  00000-0  21082-2 0  9996,2 49758  53.2185 231.5481 0001604 102.7946 257.3225 15.08886387136823,6917.739,95.435,540.713,538.494,0.0
49758.0,STARLINK-3194,PAYLOAD,2024-05-16 22:56:49,15.08864601,0.0002,53.216,229.7569,80.5511,279.5708,0.0006382,9.89e-05,0.0,0 STARLINK-3194,1 49758U 21115AL  24137.95612350  .00009890  00000-0  63820-3 0  9999,2 49758  53.2160 229.7569 0002000  80.5511 279.5708 15.08864601136887,6917.805,95.436,541.054,538.287,0.0
49758.0,STARLINK-3194,PAYLOAD,2024-05-17 13:15:16,15.08854007,0.0001661,53.2164,227.0875,109.8833,250.2338,0.0003732,5.659e-05,0.0,0 STARLINK-3194,1 49758U 21115AL  24138.55227923  .00005659  00000-0  37320-3 0  9999,2 49758  53.2164 227.0875 0001661 109.8833 250.2338 15.08854007136970,6917.838,95.437,540.852,538.554,0.0
49758.0,STARLINK-3194,PAYLOAD,2024-05-17 16:26:02,15.08866243,0.0001742,53.2164,226.4906,107.8692,252.249,0.00095623,0.00014974,0.0,0 STARLINK-3194,1 49758U 21115AL  24138.68475644  .00014974  00000-0  95623-3 0  9998,2 49758  53.2164 226.4906 0001742 107.8692 252.2490 15.08866243135884,6917.8,95.436,540.87,538.46,0.0
49758.0,STARLINK-3194,PAYLOAD,2024-05-18 05:09:08,15.08850883,0.0002888,53.2164,224.1109,79.4229,280.7089,0.0011753,0.00018473,0.0,0 STARLINK-3194,1 49758U 21115AL  24139.21468505  .00018473  00000-0  11753-2 0  9995,2 49758  53.2164 224.1109 0002888  79.4229 280.7089 15.08850883137072,6917.847,95.437,541.71,537.714,0.0
49758.0,STARLINK-3194,PAYLOAD,2024-05-18 13:06:03,15.08851994,0.0001449,53.216,222.6192,81.845,278.2707,0.00050537,7.767e-05,0.0,0 STARLINK-3194,1 49758U 21115AL  24139.54587886  .00007767  00000-0  50537-3 0  9993,2 49758  53.2160 222.6192 0001449  81.8450 278.2707 15.08851994136014,6917.844,95.437,540.711,538.706,0.0
49758.0,STARLINK-3194,PAYLOAD,2024-05-18 22:38:23,15.08826459,0.0001546,53.2142,220.8392,94.157,265.9599,-3.1214e-05,-7.85e-06,0.0,0 STARLINK-3194,1 49758U 21115AL  24139.94332771 -.00000785  00000-0 -31214-4 0  9995,2 49758  53.2142 220.8392 0001546  94.1570 265.9599 15.08826459136070,6917.922,95.438,540.856,538.717,0.0
49758.0,STARLINK-3194,PAYLOAD,2024-05-19 12:56:53,15.0881486,0.0001309,53.2159,218.1616,104.197,255.9168,5.1224e-05,5.27e-06,0.0,0 STARLINK-3194,1 49758U 21115AL  24140.53950235  .00000527  00000-0  51224-4 0  9998,2 49758  53.2159 218.1616 0001309 104.1970 255.9168 15.08814860136164,6917.957,95.439,540.728,538.917,0.0
49758.0,STARLINK-3194,PAYLOAD,2024-05-20 04:50:44,15.08836737,0.000141,53.2164,215.1906,81.3233,278.7919,0.00073549,0.00011436,0.0,0 STARLINK-3194,1 49758U 21115AL  24141.20190629  .00011436  00000-0  73549-3 0  9990,2 49758  53.2164 215.1906 0001410  81.3233 278.7919 15.08836737137378,6917.89,95.438,540.731,538.78,0.0
49758.0,STARLINK-3194,PAYLOAD,2024-05-20 11:12:16,15.08853283,0.0002104,53.2157,214.0012,90.4022,269.7211,0.0010746,0.00016862,0.0,0 STARLINK-3194,1 49758U 21115AL  24141.46686288  .00016862  00000-0  10746-2 0  9996,2 49758  53.2157 214.0012 0002104  90.4022 269.7211 15.08853283137419,6917.84,95.437,541.16,538.249,0.0
49758.0,STARLINK-3194,PAYLOAD,2024-05-20 14:23:02,15.08863051,0.0002315,53.2158,213.4044,96.8105,263.3151,0.0010617,0.0001666,0.0,0 STARLINK-3194,1 49758U 21115AL  24141.59933889  .00016660  00000-0  10617-2 0  9995,2 49758  53.2158 213.4044 0002315  96.8105 263.3151 15.08863051136320,6917.81,95.436,541.276,538.073,0.0
49758.0,STARLINK-3194,PAYLOAD,2024-05-21 04:41:31,15.08848125,0.0002125,53.2165,210.728,92.3755,267.748,-8.3295e-05,-1.614e-05,0.0,0 STARLINK-3194,1 49758U 21115AL  24142.19549852 -.00001614  00000-0 -83295-4 0  9994,2 49758  53.2165 210.7280 0002125  92.3755 267.7480 15.08848125137522,6917.856,95.437,541.191,538.251,0.0
49758.0,STARLINK-3194,PAYLOAD,2024-05-21 11:03:03,15.0884601,0.0001347,53.2165,209.5379,80.9339,279.1805,1.915e-05,1.7e-07,0.0,0 STARLINK-3194,1 49758U 21115AL  24142.46045983  .00000017  00000-0  19150-4 0  9993,2 49758  53.2165 209.5379 0001347  80.9339 279.1805 15.08846010136453,6917.862,95.437,540.659,538.795,0.0
